{"features": [{"geometry": {"coordinates": [4.764377, 52.308932], "type": "Point"}, "properties": {"code": "ams", "name": "Schiphol"}, "type": "Feature"}, {"geometry": {"coordinates": [17.93073, 59.65112], "type": "Point"}, "properties": {"code": "arn", "name": "Arlanda"}, "type": "Feature"}, {"geometry": {"coordinates": [-84.425397, 33.640529], "type": "Point"}, "properties": {"code": "atl", "name": "Hartsfield-Jackson Atlanta Int'l"}, "type": "Feature"}, {"geometry": {"coordinates": [-74.143372, 4.698833], "type": "Point"}, "properties": {"code": "bog", "name": "Eldorado Int'l"}, "type": "Feature"}, {"geometry": {"coordinates": [72.874564, 19.095102], "type": "Point"}, "properties": {"code": "bom", "name": "Chhatrapati Shivaji Int'l"}, "type": "Feature"}, {"geometry": {"coordinates": [2.541868, 49.01442], "type": "Point"}, "properties": {"code": "cdg", "name": "Charles de Gaulle Int'l"}, "type": "Feature"}, {"geometry": {"coordinates": [-104.673797, 39.849461], "type": "Point"}, "properties": {"code": "den", "name": "Denver Int'l"}, "type": "Feature"}, {"geometry": {"coordinates": [-97.040371, 32.900151], "type": "Point"}, "properties": {"code": "dfw", "name": "Dallas-Ft. Worth Int'l"}, "type": "Feature"}, {"geometry": {"coordinates": [-74.177147, 40.69048], "type": "Point"}, "properties": {"code": "ewr", "name": "Newark Int'l"}, "type": "Feature"}, {"geometry": {"coordinates": [-58.541246, -34.813647], "type": "Point"}, "properties": {"code": "eze", "name": "Ministro Pistarini Int'l"}, "type": "Feature"}, {"geometry": {"coordinates": [8.571823, 50.050677], "type": "Point"}, "properties": {"code": "fra", "name": "Frankfurt Int'l"}, "type": "Feature"}, {"geometry": {"coordinates": [-43.248381, -22.812344], "type": "Point"}, "properties": {"code": "gig", "name": "Rio de Janeiro-Antonio Carlos Jobim Int'l"}, "type": "Feature"}, {"geometry": {"coordinates": [-46.481754, -23.426116], "type": "Point"}, "properties": {"code": "gru", "name": "Sao Paulo-Guarulhos Int'l"}, "type": "Feature"}, {"geometry": {"coordinates": [113.935016, 22.315333], "type": "Point"}, "properties": {"code": "hkg", "name": "Hong Kong Int'l"}, "type": "Feature"}, {"geometry": {"coordinates": [-77.447793, 38.952774], "type": "Point"}, "properties": {"code": "iad", "name": "Dulles Int'l"}, "type": "Feature"}, {"geometry": {"coordinates": [28.231989, -26.132095], "type": "Point"}, "properties": {"code": "jnb", "name": "OR Tambo Int'l"}, "type": "Feature"}, {"geometry": {"coordinates": [-118.402469, 33.944174], "type": "Point"}, "properties": {"code": "lax", "name": "Los Angeles Int'l"}, "type": "Feature"}, {"geometry": {"coordinates": [-0.453157, 51.470996], "type": "Point"}, "properties": {"code": "lhr", "name": "London Heathrow"}, "type": "Feature"}, {"geometry": {"coordinates": [80.163776, 12.98253], "type": "Point"}, "properties": {"code": "maa", "name": "Chennai Int'l"}, "type": "Feature"}, {"geometry": {"coordinates": [-3.569027, 40.468128], "type": "Point"}, "properties": {"code": "mad", "name": "Madrid Barajas"}, "type": "Feature"}, {"geometry": {"coordinates": [-80.278972, 25.794941], "type": "Point"}, "properties": {"code": "mia", "name": "Miami Int'l"}, "type": "Feature"}, {"geometry": {"coordinates": [140.384402, 35.764056], "type": "Point"}, "properties": {"code": "nrt", "name": "Narita Int'l"}, "type": "Feature"}, {"geometry": {"coordinates": [-87.905134, 41.976529], "type": "Point"}, "properties": {"code": "ord", "name": "Chicago O'Hare Int'l"}, "type": "Feature"}, {"geometry": {"coordinates": [-100.187359, 20.622466], "type": "Point"}, "properties": {"code": "qro", "name": "Queretaro Int'l"}, "type": "Feature"}, {"geometry": {"coordinates": [-122.30229, 47.443582], "type": "Point"}, "properties": {"code": "sea", "name": "Tacoma Int'l"}, "type": "Feature"}, {"geometry": {"coordinates": [103.986414, 1.356161], "type": "Point"}, "properties": {"code": "sin", "name": "Singapore Changi"}, "type": "Feature"}, {"geometry": {"coordinates": [-121.929429, 37.369491], "type": "Point"}, "properties": {"code": "sjc", "name": "San Jose Int'l"}, "type": "Feature"}, {"geometry": {"coordinates": [151.166067, -33.936583], "type": "Point"}, "properties": {"code": "syd", "name": "Kingsford Smith"}, "type": "Feature"}, {"geometry": {"coordinates": [121.23137, 25.076741], "type": "Point"}, "properties": {"code": "tpe", "name": "Taoyuan"}, "type": "Feature"}, {"geometry": {"coordinates": [20.972726, 52.171027], "type": "Point"}, "properties": {"code": "waw", "name": "Okecie Int'l"}, "type": "Feature"}, {"geometry": {"coordinates": [-73.749316, 45.458351], "type": "Point"}, "properties": {"code": "yul", "name": "Montreal-Trudeau"}, "type": "Feature"}, {"geometry": {"coordinates": [-79.611419, 43.68096], "type": "Point"}, "properties": {"code": "yyz", "name": "Toronto-Pearson Int'l"}, "type": "Feature"}], "type": "FeatureCollection"}
